#cP2022 12  9  0  0  0.00000000      96 ORBIT IGS20 HLM  IGS
## 2239 432000.00000000   900.00000000 59922 0.0000000000000
+   31   G01G02G03G04G05G06G07G08G09G10G11G12G13G14G15G16G17
+        G18G19G20G21G22G23G24G25G26G27G29G30G31G32  0  0  0
+          0  0  0  0  0  0  0  0  0  0  0  0  0  0  0  0  0
+          0  0  0  0  0  0  0  0  0  0  0  0  0  0  0  0  0
+          0  0  0  0  0  0  0  0  0  0  0  0  0  0  0  0  0
++         2  2  2  2  2  2  2  2  2  2  2  2  2  3  2  2  2
++         2  2  2  2  2  3  2  2  2  2  2  2  2  2  0  0  0
++         0  0  0  0  0  0  0  0  0  0  0  0  0  0  0  0  0
++         0  0  0  0  0  0  0  0  0  0  0  0  0  0  0  0  0
++         0  0  0  0  0  0  0  0  0  0  0  0  0  0  0  0  0
%c G  cc GPS ccc cccc cccc cccc cccc ccccc ccccc ccccc ccccc
%c cc cc ccc ccc cccc cccc cccc cccc ccccc ccccc ccccc ccccc
%f  1.2500000  1.025000000  0.00000000000  0.000000000000000
%f  0.0000000  0.000000000  0.00000000000  0.000000000000000
%i    0    0    0    0      0      0      0      0         0
%i    0    0    0    0      0      0      0      0         0
/* RAPID ORBIT COMBINATION FROM WEIGHTED AVERAGE OF:        
/* cod emr esa gfz grg jpl ngs sio usn whu                  
/* REFERENCED TO IGS TIME (IGST) AND TO WEIGHTED MEAN POLE: 
/* PCV:IGS20_2233 OL/AL:FES2004  NONE     Y  ORB:CMB CLK:CMB
*  2022 12  9 23 15  0.00000000
PG01  12345.159394 -21438.692662  -9489.035989    239.942405  6  4  7 118       
PG02  -8265.178935  22856.844722  11583.606892   -633.847960  8  7  7  78       
PG03   6561.062657 -13646.133807 -21936.825977   -375.220966  8  7  7 126       
PG04   2146.497905 -23805.499683 -11467.057076    -71.516362  7  8  7 120       
PG05 -20074.785658   7186.632146  15737.993278   -107.463483  5  8  7 126       
PG06 -17067.944220  -1542.469050 -20244.627134    536.826866  8  8  7 118       
PG07  -1525.620774 -18381.665800  19356.686799    276.632325  7  7  7 107       
PG08   9100.652748 -15663.431399  19247.325216    -97.870394  5  7  4 119       
PG09  -7293.011902 -25495.270417  -1051.294305   -255.985862  9  4  7 119       
PG10  22451.972031  11566.895823   8885.806614    -15.412636  8  3  3 125       
PG11 -21826.256350   9128.367826 -12026.419077    -54.017395 10  8  9  73       
PG12  -8467.230755  13055.030281 -21786.579829   -314.048175 10  6  9 111       
PG13 -13572.973689   7850.945179  21233.469393    439.188351  7  8  3 100       
PG14 -20509.685940 -13423.910826  10381.413192    -70.738593 11  8  9 103       
PG15  -7355.986419  17089.171650  18404.691868     -5.444765  8  8  7 103       
PG16  23372.438301  -1315.196023  12693.592314   -526.343818  9  6  5 113       
PG17 -12482.542487 -20196.902171 -11376.562347    684.651810  6  8 12 130       
PG18   2893.651140  16772.689802  20354.331750    -53.003677  8  4  7 111       
PG19 -15307.480583  -9948.407413 -19616.190263    248.391882  6  7  9 117       
PG20 -25999.727018   1392.450973   4622.948663    464.623737  8  8 10 112       
PG21  16826.302573 -19992.191808    791.926771    154.216674  7  7  4 120       
PG22  15637.064427   6711.043451 -20016.472691    381.455556  8  6  7 101       
PG23  13535.932982  14972.728996  17332.767516     -0.166469 10  6  5 120       
PG24 -13442.851026  22223.532917  -4675.803493     22.957535  8  9  9  95       
PG25   3548.607887  16165.594563 -21125.450955    400.541802 10  4  6  98       
PG26  26443.065627   3778.509889   1222.936224    238.017750  6  5  7  58       
PG27  14504.762317  -3539.096721  21750.076764    157.374363  6  7  5  81       
PG29   3544.423715  26118.526121  -2940.195174   -572.922095  9  7  4  92       
PG30 -12391.306747  -9903.645909  21402.564491   -535.655058  9  8  6 114       
PG31  18692.932569    524.088555 -19191.182950   -202.778906 10  7  8 129       
PG32  15133.607588  17117.350002 -13557.558387   -324.159234  8  7  5 109       
*  2022 12  9 23 30  0.00000000
PG01  13086.322376 -21975.802724  -6761.438940    239.937613  6  5  7 112       
PG02  -9070.970359  23615.505832   9059.859039   -633.846373  8  7  7  92       
PG03   8951.138536 -13105.208254 -21402.926805   -375.221235  9  7  7  98       
PG04   2756.887360 -22473.927027 -13796.722869    -71.510018  8  8  8 113       
PG05 -21726.938578   6736.187152  13635.453013   -107.464604  5  8  8 117       
PG06 -15513.144238  -3344.808835 -21242.929533    536.834010  8  8  7 120       
PG07    -19.688725 -19813.057756  17873.772512    276.627351  6  7  7 111       
PG08   9983.675181 -13549.160596  20410.398110    -97.871779  5  7  3 123       
PG09  -6943.741046 -25328.044054  -3879.512877   -255.980450  8  3  7 123       
PG10  21312.773781  11496.934370  11432.427384    -15.414305  8  3  3 120       
PG11 -20903.978482   7917.941491 -14307.883978    -54.023801 11  7  9 105       
PG12 -10761.743551  12351.485439 -21158.341733   -314.052396 10  6  9 110       
PG13 -14067.864176   5407.074191  21682.625078    439.194122  6  9  3 110       
PG14 -19170.817717 -13335.128283  12769.623374    -70.733067 11  8  9 130       
PG15  -8503.120422  15113.705451  19597.787765     -5.441935  9  8  7 106       
PG16  24601.848692   -757.376208  10278.743324   -526.343478  9  6  6 112       
PG17 -12594.485371 -21423.138180  -8813.812391    684.654329  6  8 12 135       
PG18   1282.815142  18358.135413  19100.615712    -53.016736  8  5  7 110       
PG19 -15658.902025 -12025.038165 -18123.308186    248.396160  6  7  9 109       
PG20 -26355.516688   1066.968722   1815.112319    464.621743  8  9 11 114       
PG21  16956.759274 -19648.267460   3679.436836    154.215506  7  8  3 117       
PG22  16067.062732   8971.854474 -18793.871625    381.462310  8  6  7  91       
PG23  11478.459234  14725.954624  18940.969636     -0.165927 10  6  6 120       
PG24 -13936.902974  22283.294007  -1884.232454     22.942086  8  9 10 106       
PG25   1201.745918  15741.756119 -21684.988564    400.545026 10  5  6 112       
PG26  26391.767088   4073.859893  -1562.885996    238.018626  6  6  8  60       
PG27  15293.642474  -1148.035146  21504.148215    157.365374  6  8  6  88       
PG29   3225.377396  25688.401569  -5778.154479   -572.924161 10  7  4  91       
PG30 -10735.807808 -11692.993698  21371.129426   -535.654487  9  7  7 121       
PG31  17241.483654   2207.993638 -20362.384353   -202.779845 10  7  8 132       
PG32  15399.429911  18541.214003 -11228.454182   -324.170954  8  7  5 109       
*  2022 12  9 23 45  0.00000000
PG01  13598.525795 -22306.642126  -3916.124406    239.932864  6  5  6 107       
PG02  -9678.112309  24175.612588   6385.563115   -633.844649  9  8  7  99       
PG03  11288.640030 -12707.748644 -20504.250686   -375.221456  9  6  7 113       
PG04   3519.717352 -20940.052403 -15887.734086    -71.503718  8  8  8 125       
PG05 -23148.235467   6400.121855  11297.193922   -107.465864  5  9  8 123       
PG06 -14003.791493  -5305.008908 -21873.892079    536.841127  9  8  6 122       
PG07   1302.602662 -21178.889064  16087.553409    276.622625  5  6  8 104       
PG08  11016.932339 -11382.868018  21218.058688    -97.873434  5  7  4 113       
PG09  -6464.541774 -24887.140393  -6640.873952   -255.975071  8  3  7 123       
PG10  19899.304499  11450.904295  13787.067883    -15.415562  8  3  2 129       
PG11 -19884.877487   6477.243550 -16342.565541    -54.030248 11  6 10 107       
PG12 -13004.298593  11791.183513 -20174.075231   -314.056177 10  6 10 113       
PG13 -14697.746726   2965.587326  21752.145365    439.200293  6  9  4 112       
PG14 -17575.928225 -13268.189109  14939.437267    -70.727538 11  7  9 125       
PG15  -9796.427231  13091.432210  20438.341269     -5.438729  9  9  7 108       
PG16  25582.963685   -335.181596   7689.197018   -526.343217  9  6  5 105       
PG17 -12680.381872 -22351.270126  -6095.995903    684.657315  6  8 12 136       
PG18   -138.865464  19904.264914  17516.868194    -53.029817  8  5  7 102       
PG19 -16074.871314 -13901.293041 -16326.843188    248.400972  6  7  9 110       
PG20 -26406.226032    754.154603  -1024.392988    464.619207  9  9 11 120       
PG21  16918.651759 -19042.700475   6501.147308    154.214837  7  8  3 119       
PG22  16566.430294  11051.077213 -17238.304862    381.469267  8  7  6  85       
PG23   9247.069856  14571.732210  20224.563441     -0.165398 10  6  6 112       
PG24 -14253.128045  22098.943544    940.512369     22.926643  8 10 10 111       
PG25  -1208.052230  15434.953004 -21882.237127    400.548217 10  5  7 108       
PG26  26045.972135   4344.117875  -4322.379980    238.019475  7  7  9  75       
PG27  16188.460334   1147.577407  20881.996778    157.356374  6  7  7  98       
PG29   2789.198141  24974.090288  -8516.295153   -572.926322 10  7  4 101       
PG30  -9182.053234 -13543.495861  20974.498361   -535.653881 10  7  7 118       
PG31  15806.173097   4053.959185 -21191.444797   -202.780601 11  7  8 133       
PG32  15636.320020  19693.376697  -8706.719274   -324.182748  8  7  5 108       
EOF
